[
    {
        "Altitude(m)": 576153.3940227102,
        "Argument of Periapsis(deg)": -0.022603160782972403,
        "Eccentricity": 0.0,
        "Inclination(deg)": 97.0,
        "Latitude(deg)": 74.52842955768418,
        "Longitude(deg)": 103.83418677078912,
        "Mean Anomaly(deg)": 103.9280432691875,
        "RAAN(deg)": 0.005947053618510769,
        "Satellite Name": "Starlink Shell 3 1595",
        "Satellite Number": 1595,
        "Semi-Major Axis(m)": 6938478.169268562,
        "Time(s)": 570
    },
    {
        "Altitude(m)": 576080.303885619,
        "Argument of Periapsis(deg)": -0.02299970746337543,
        "Eccentricity": 0.0,
        "Inclination(deg)": 97.0,
        "Latitude(deg)": 73.97109410823786,
        "Longitude(deg)": 102.76739211725344,
        "Mean Anomaly(deg)": 104.55351946689254,
        "RAAN(deg)": 0.00605138789251973,
        "Satellite Name": "Starlink Shell 3 1595",
        "Satellite Number": 1595,
        "Semi-Major Axis(m)": 6938478.169268562,
        "Time(s)": 580
    },
    {
        "Altitude(m)": 576004.3382183302,
        "Argument of Periapsis(deg)": -0.023396254143778456,
        "Eccentricity": 0.0,
        "Inclination(deg)": 97.0,
        "Latitude(deg)": 73.40917656483413,
        "Longitude(deg)": 101.76795032260073,
        "Mean Anomaly(deg)": 105.17899566459758,
        "RAAN(deg)": 0.0061557221665286925,
        "Satellite Name": "Starlink Shell 3 1595",
        "Satellite Number": 1595,
        "Semi-Major Axis(m)": 6938478.169268562,
        "Time(s)": 590
    },
    {
        "Altitude(m)": 575925.5402186613,
        "Argument of Periapsis(deg)": -0.023792800824181483,
        "Eccentricity": 0.0,
        "Inclination(deg)": 97.0,
        "Latitude(deg)": 72.84312196582319,
        "Longitude(deg)": 100.82971341745818,
        "Mean Anomaly(deg)": 105.80447186230263,
        "RAAN(deg)": 0.0062600564405376515,
        "Satellite Name": "Starlink Shell 3 1595",
        "Satellite Number": 1595,
        "Semi-Major Axis(m)": 6938478.169268562,
        "Time(s)": 600
    },
    {
        "Altitude(m)": 575843.9547296028,
        "Argument of Periapsis(deg)": -0.024189347504584503,
        "Eccentricity": 0.0,
        "Inclination(deg)": 97.0,
        "Latitude(deg)": 72.27332144386901,
        "Longitude(deg)": 99.94720134595832,
        "Mean Anomaly(deg)": 106.42994806000766,
        "RAAN(deg)": 0.006364390714546612,
        "Satellite Name": "Starlink Shell 3 1595",
        "Satellite Number": 1595,
        "Semi-Major Axis(m)": 6938478.169268562,
        "Time(s)": 610
    },
    {
        "Altitude(m)": 575759.6282180984,
        "Argument of Periapsis(deg)": -0.02458589418498753,
        "Eccentricity": 0.0,
        "Inclination(deg)": 97.0,
        "Latitude(deg)": 71.70011971886439,
        "Longitude(deg)": 99.11552344745795,
        "Mean Anomaly(deg)": 107.0554242577127,
        "RAAN(deg)": 0.0064687249885555746,
        "Satellite Name": "Starlink Shell 3 1595",
        "Satellite Number": 1595,
        "Semi-Major Axis(m)": 6938478.169268562,
        "Time(s)": 620
    },
    {
        "Altitude(m)": 575672.6087530305,
        "Argument of Periapsis(deg)": -0.024982440865390556,
        "Eccentricity": 0.0,
        "Inclination(deg)": 97.0,
        "Latitude(deg)": 71.12382145024947,
        "Longitude(deg)": 98.33030737611557,
        "Mean Anomaly(deg)": 107.68090045541774,
        "RAAN(deg)": 0.006573059262564535,
        "Satellite Name": "Starlink Shell 3 1595",
        "Satellite Number": 1595,
        "Semi-Major Axis(m)": 6938478.169268562,
        "Time(s)": 630
    },
    {
        "Altitude(m)": 575582.9459824207,
        "Argument of Periapsis(deg)": -0.025378987545793576,
        "Eccentricity": 0.0,
        "Inclination(deg)": 97.0,
        "Latitude(deg)": 70.54469663057208,
        "Longitude(deg)": 97.58763890573951,
        "Mean Anomaly(deg)": 108.3063766531228,
        "RAAN(deg)": 0.006677393536573496,
        "Satellite Name": "Starlink Shell 3 1595",
        "Satellite Number": 1595,
        "Semi-Major Axis(m)": 6938478.169268562,
        "Time(s)": 640
    },
    {
        "Altitude(m)": 575490.6911098557,
        "Argument of Periapsis(deg)": -0.025775534226196602,
        "Eccentricity": 0.0,
        "Inclination(deg)": 97.0,
        "Latitude(deg)": 69.96298517354352,
        "Longitude(deg)": 96.88400674854479,
        "Mean Anomaly(deg)": 108.93185285082784,
        "RAAN(deg)": 0.006781727810582457,
        "Satellite Name": "Starlink Shell 3 1595",
        "Satellite Number": 1595,
        "Semi-Major Axis(m)": 6938478.169268562,
        "Time(s)": 650
    },
    {
        "Altitude(m)": 575395.8968701658,
        "Argument of Periapsis(deg)": -0.026172080906599626,
        "Eccentricity": 0.0,
        "Inclination(deg)": 97.0,
        "Latitude(deg)": 69.37890082514468,
        "Longitude(deg)": 96.21625576116078,
        "Mean Anomaly(deg)": 109.55732904853289,
        "RAAN(deg)": 0.006886062084591417,
        "Satellite Name": "Starlink Shell 3 1595",
        "Satellite Number": 1595,
        "Semi-Major Axis(m)": 6938478.169268562,
        "Time(s)": 660
    },
    {
        "Altitude(m)": 575298.6175043482,
        "Argument of Periapsis(deg)": -0.026568627587002652,
        "Eccentricity": 0.0,
        "Inclination(deg)": 97.0,
        "Latitude(deg)": 68.79263450531107,
        "Longitude(deg)": 95.58154606839258,
        "Mean Anomaly(deg)": 110.18280524623793,
        "RAAN(deg)": 0.006990396358600378,
        "Satellite Name": "Starlink Shell 3 1595",
        "Satellite Number": 1595,
        "Semi-Major Axis(m)": 6938478.169268562,
        "Time(s)": 670
    },
    {
        "Altitude(m)": 575198.908733733,
        "Argument of Periapsis(deg)": -0.02696517426740568,
        "Eccentricity": 0.0,
        "Inclination(deg)": 97.0,
        "Latitude(deg)": 68.20435717000063,
        "Longitude(deg)": 94.97731586524361,
        "Mean Anomaly(deg)": 110.80828144394296,
        "RAAN(deg)": 0.00709473063260934,
        "Satellite Name": "Starlink Shell 3 1595",
        "Satellite Number": 1595,
        "Semi-Major Axis(m)": 6938478.169268562,
        "Time(s)": 680
    },
    {
        "Altitude(m)": 575096.827733417,
        "Argument of Periapsis(deg)": -0.0273617209478087,
        "Eccentricity": 0.0,
        "Inclination(deg)": 97.0,
        "Latitude(deg)": 67.61422226860577,
        "Longitude(deg)": 94.40125026715909,
        "Mean Anomaly(deg)": 111.433757641648,
        "RAAN(deg)": 0.007199064906618299,
        "Satellite Name": "Starlink Shell 3 1595",
        "Satellite Number": 1595,
        "Semi-Major Axis(m)": 6938478.169268562,
        "Time(s)": 690
    },
    {
        "Altitude(m)": 574992.433105013,
        "Argument of Periapsis(deg)": -0.027758267628211725,
        "Eccentricity": 0.0,
        "Inclination(deg)": 97.0,
        "Latitude(deg)": 67.02236785929375,
        "Longitude(deg)": 93.851254112055,
        "Mean Anomaly(deg)": 112.05923383935306,
        "RAAN(deg)": 0.00730339918062726,
        "Satellite Name": "Starlink Shell 3 1595",
        "Satellite Number": 1595,
        "Semi-Major Axis(m)": 6938478.169268562,
        "Time(s)": 700
    },
    {
        "Altitude(m)": 574885.7848486295,
        "Argument of Periapsis(deg)": -0.028154814308614752,
        "Eccentricity": 0.0,
        "Inclination(deg)": 97.0,
        "Latitude(deg)": 66.4289184345686,
        "Longitude(deg)": 93.32542668709817,
        "Mean Anomaly(deg)": 112.6847100370581,
        "RAAN(deg)": 0.0074077334546362224,
        "Satellite Name": "Starlink Shell 3 1595",
        "Satellite Number": 1595,
        "Semi-Major Axis(m)": 6938478.169268562,
        "Time(s)": 710
    },
    {
        "Altitude(m)": 574776.9443341932,
        "Argument of Periapsis(deg)": -0.02855136098901778,
        "Eccentricity": 0.0,
        "Inclination(deg)": 97.0,
        "Latitude(deg)": 65.83398650080083,
        "Longitude(deg)": 92.8220409561282,
        "Mean Anomaly(deg)": 113.31018623476314,
        "RAAN(deg)": 0.007512067728645183,
        "Satellite Name": "Starlink Shell 3 1595",
        "Satellite Number": 1595,
        "Semi-Major Axis(m)": 6938478.169268562,
        "Time(s)": 720
    },
    {
        "Altitude(m)": 574665.9742720594,
        "Argument of Periapsis(deg)": -0.028947907669420805,
        "Eccentricity": 0.0,
        "Inclination(deg)": 97.0,
        "Latitude(deg)": 65.23767394837864,
        "Longitude(deg)": 92.33952538312019,
        "Mean Anomaly(deg)": 113.93566243246819,
        "RAAN(deg)": 0.007616402002654144,
        "Satellite Name": "Starlink Shell 3 1595",
        "Satellite Number": 1595,
        "Semi-Major Axis(m)": 6938478.169268562,
        "Time(s)": 730
    },
    {
        "Altitude(m)": 574552.9386829669,
        "Argument of Periapsis(deg)": -0.029344454349823825,
        "Eccentricity": 0.0,
        "Inclination(deg)": 97.0,
        "Latitude(deg)": 64.64007324324452,
        "Longitude(deg)": 91.8764464988627,
        "Mean Anomaly(deg)": 114.56113863017323,
        "RAAN(deg)": 0.0077207362766631045,
        "Satellite Name": "Starlink Shell 3 1595",
        "Satellite Number": 1595,
        "Semi-Major Axis(m)": 6938478.169268562,
        "Time(s)": 740
    },
    {
        "Altitude(m)": 574437.9028672916,
        "Argument of Periapsis(deg)": -0.029741001030226845,
        "Eccentricity": 0.0,
        "Inclination(deg)": 97.0,
        "Latitude(deg)": 64.04126846569197,
        "Longitude(deg)": 91.4314949422371,
        "Mean Anomaly(deg)": 115.18661482787826,
        "RAAN(deg)": 0.007825070550672067,
        "Satellite Name": "Starlink Shell 3 1595",
        "Satellite Number": 1595,
        "Semi-Major Axis(m)": 6938478.169268562,
        "Time(s)": 750
    }
]